[
    {
        "Altitude(m)": 583949.2767799693,
        "Argument of Periapsis(deg)": -0.037671934638287344,
        "Eccentricity": 0.0,
        "Inclination(deg)": 97.0,
        "Latitude(deg)": -52.856004903743816,
        "Longitude(deg)": -143.20564105798618,
        "Mean Anomaly(deg)": -126.7866612180208,
        "RAAN(deg)": 150.00991175603087,
        "Satellite Name": "Starlink Shell 3 1902",
        "Satellite Number": 1902,
        "Semi-Major Axis(m)": 6938478.169268562,
        "Time(s)": 950
    },
    {
        "Altitude(m)": 584183.7647327066,
        "Argument of Periapsis(deg)": -0.03806848131869037,
        "Eccentricity": 0.0,
        "Inclination(deg)": 97.0,
        "Latitude(deg)": -53.46597653957284,
        "Longitude(deg)": -143.45734936769963,
        "Mean Anomaly(deg)": -126.16118502031577,
        "RAAN(deg)": 150.01001609030487,
        "Satellite Name": "Starlink Shell 3 1902",
        "Satellite Number": 1902,
        "Semi-Major Axis(m)": 6938478.169268562,
        "Time(s)": 960
    },
    {
        "Altitude(m)": 584416.2199624471,
        "Argument of Periapsis(deg)": -0.0384650279990934,
        "Eccentricity": 0.0,
        "Inclination(deg)": 97.0,
        "Latitude(deg)": -54.07548158969076,
        "Longitude(deg)": -143.71514853229652,
        "Mean Anomaly(deg)": -125.53570882261067,
        "RAAN(deg)": 150.01012042457887,
        "Satellite Name": "Starlink Shell 3 1902",
        "Satellite Number": 1902,
        "Semi-Major Axis(m)": 6938478.169268562,
        "Time(s)": 970
    },
    {
        "Altitude(m)": 584646.5496205423,
        "Argument of Periapsis(deg)": -0.03886157467949641,
        "Eccentricity": 0.0,
        "Inclination(deg)": 97.0,
        "Latitude(deg)": -54.68450098081354,
        "Longitude(deg)": -143.97935474820366,
        "Mean Anomaly(deg)": -124.91023262490579,
        "RAAN(deg)": 150.0102247588529,
        "Satellite Name": "Starlink Shell 3 1902",
        "Satellite Number": 1902,
        "Semi-Major Axis(m)": 6938478.169268562,
        "Time(s)": 980
    },
    {
        "Altitude(m)": 584874.6616428681,
        "Argument of Periapsis(deg)": -0.03925812135989944,
        "Eccentricity": 0.0,
        "Inclination(deg)": 97.0,
        "Latitude(deg)": -55.29301431318212,
        "Longitude(deg)": -144.2503050871985,
        "Mean Anomaly(deg)": -124.28475642720066,
        "RAAN(deg)": 150.0103290931269,
        "Satellite Name": "Starlink Shell 3 1902",
        "Satellite Number": 1902,
        "Semi-Major Axis(m)": 6938478.169268562,
        "Time(s)": 990
    }
]